{
    "satellites": [
        {
            "name": "starlink349",
            "title": "Starlink-349 (G17-32)",
            "tle": [
                "1 67672C 26022AA  26041.07340278 -.01574700  00000+0 -37533-2 0   410",
                "2 67672  97.2798  73.6251 0001835  74.2359  60.7429 15.98264251    15"
            ],
            "stdMag": 5,
            "noradId": "67672",
            "tleUrl": "http://celestrak.org/NORAD/elements/supplemental/sup-gp.php?FILE=starlink&FORMAT=tle",
            "launchDate": "2026-02-02T15:47:11.000Z",
            "active": true,
            "batch": [
                {
                    "noradId": "67672",
                    "tle": [
                        "1 67672C 26022AA  26041.07340278 -.01574700  00000+0 -37533-2 0   410",
                        "2 67672  97.2798  73.6251 0001835  74.2359  60.7429 15.98264251    15"
                    ]
                },
                {
                    "noradId": "67671",
                    "tle": [
                        "1 67671C 26022Z   26041.07201389 -.01570700  00000+0 -37132-2 0   419",
                        "2 67671  97.2796  73.6246 0001777  78.0199  51.2963 15.98411157    12"
                    ]
                },
                {
                    "noradId": "67670",
                    "tle": [
                        "1 67670C 26022Y   26041.07270833 -.01579600  00000+0 -37994-2 0   412",
                        "2 67670  97.2798  73.6232 0001836  76.2681  52.0887 15.98101890    14"
                    ]
                },
                {
                    "noradId": "67669",
                    "tle": [
                        "1 67669C 26022X   26041.09562500 -.01584800  00000+0 -38672-2 0   419",
                        "2 67669  97.2803  73.6472 0001629  78.9587 178.1934 15.97841514    15"
                    ]
                },
                {
                    "noradId": "67668",
                    "tle": [
                        "1 67668C 26022W   26041.07687500 -.01595000  00000+0 -39293-2 0   418",
                        "2 67668  97.2801  73.6251 0001808  77.5075  68.3568 15.97675285    16"
                    ]
                },
                {
                    "noradId": "67667",
                    "tle": [
                        "1 67667C 26022V   26041.09006944 -.01599700  00000+0 -40031-2 0   419",
                        "2 67667  97.2804  73.6377 0001787  86.3357 131.6827 15.97388829    11"
                    ]
                },
                {
                    "noradId": "67665",
                    "tle": [
                        "1 67665C 26022T   26041.07548611 -.01614500  00000+0 -41270-2 0   419",
                        "2 67665  97.2805  73.6191 0001817  75.2085  52.3644 15.97007971    15"
                    ]
                },
                {
                    "noradId": "67666",
                    "tle": [
                        "1 67666C 26022U   26041.09493056 -.01605200  00000+0 -40700-2 0   418",
                        "2 67666  97.2806  73.6418 0001620  76.2554 166.2862 15.97151141    19"
                    ]
                },
                {
                    "noradId": "67664",
                    "tle": [
                        "1 67664C 26022S   26041.09354167 -.01616000  00000+0 -41734-2 0   413",
                        "2 67664  97.2805  73.6372 0001711  87.8364 141.2741 15.96818020    17"
                    ]
                },
                {
                    "noradId": "67663",
                    "tle": [
                        "1 67663C 26022R   26041.09145833 -.01628100  00000+0 -42879-2 0   415",
                        "2 67663  97.2812  73.6330 0001770  77.7988 133.4994 15.96461835    14"
                    ]
                },
                {
                    "noradId": "67662",
                    "tle": [
                        "1 67662C 26022Q   26041.07340278 -.01624100  00000+0 -42221-2 0   419",
                        "2 67662  97.2812  73.6149 0001846  75.4868  35.0029 15.96702288    13"
                    ]
                },
                {
                    "noradId": "67661",
                    "tle": [
                        "1 67661C 26022P   26041.09006944 -.01633800  00000+0 -43455-2 0   416",
                        "2 67661  97.2816  73.6305 0001821  83.3762 116.9895 15.96281667    17"
                    ]
                },
                {
                    "noradId": "67660",
                    "tle": [
                        "1 67660C 26022N   26041.09631944 -.01637700  00000+0 -43938-2 0   418",
                        "2 67660  97.2814  73.6360 0001718  87.5135 146.4016 15.96122310    12"
                    ]
                },
                {
                    "noradId": "67659",
                    "tle": [
                        "1 67659C 26022M   26041.09631944 -.01643100  00000+0 -44552-2 0   410",
                        "2 67659  97.2820  73.6353 0001737  89.9113 140.9007 15.95927569    19"
                    ]
                },
                {
                    "noradId": "67658",
                    "tle": [
                        "1 67658C 26022L   26041.09493056 -.01647400  00000+0 -44994-2 0   416",
                        "2 67658  97.2818  73.6327 0001843  82.5981 137.9121 15.95794468    19"
                    ]
                },
                {
                    "noradId": "67657",
                    "tle": [
                        "1 67657C 26022K   26041.09423611 -.01652300  00000+0 -45605-2 0   410",
                        "2 67657  97.2818  73.6300 0001762  80.5659 132.8237 15.95599038    17"
                    ]
                },
                {
                    "noradId": "67656",
                    "tle": [
                        "1 67656C 26022J   26041.09284722 -.01659600  00000+0 -46236-2 0   418",
                        "2 67656  97.2821  73.6275 0001877  75.6998 126.8569 15.95429343    11"
                    ]
                },
                {
                    "noradId": "67655",
                    "tle": [
                        "1 67655C 26022H   26041.09076389 -.01664800  00000+0 -46740-2 0   413",
                        "2 67655  97.2826  73.6246 0001818  81.3486 106.7361 15.95286979    17"
                    ]
                },
                {
                    "noradId": "67654",
                    "tle": [
                        "1 67654C 26022G   26041.09006944 -.01669300  00000+0 -47407-2 0   413",
                        "2 67654  97.2825  73.6222 0001889  80.3421 100.3847 15.95072872    19"
                    ]
                },
                {
                    "noradId": "67653",
                    "tle": [
                        "1 67653C 26022F   26041.08937500 -.01675300  00000+0 -48034-2 0   416",
                        "2 67653  97.2829  73.6205 0001833  82.5024  91.3115 15.94896137    19"
                    ]
                },
                {
                    "noradId": "67652",
                    "tle": [
                        "1 67652C 26022E   26041.09284722 -.01682900  00000+0 -48828-2 0   412",
                        "2 67652  97.2830  73.6227 0001828  86.3720 104.0259 15.94675315    17"
                    ]
                },
                {
                    "noradId": "67651",
                    "tle": [
                        "1 67651C 26022D   26041.09215278 -.01685400  00000+0 -49314-2 0   410",
                        "2 67651  97.2830  73.6207 0001882  77.1805 106.5990 15.94515489    10"
                    ]
                },
                {
                    "noradId": "67650",
                    "tle": [
                        "1 67650C 26022C   26041.09215278 -.01691400  00000+0 -49993-2 0   419",
                        "2 67650  97.2833  73.6196 0001904  77.9888 102.7348 15.94326454    10"
                    ]
                },
                {
                    "noradId": "67649",
                    "tle": [
                        "1 67649C 26022B   26041.09145833 -.01696000  00000+0 -50603-2 0   417",
                        "2 67649  97.2835  73.6175 0001873  87.1818  86.6377 15.94149398    10"
                    ]
                },
                {
                    "noradId": "67648",
                    "tle": [
                        "1 67648C 26022A   26041.09076389 -.01699700  00000+0 -51082-2 0   417",
                        "2 67648  97.2837  73.6160 0001879  78.5119  88.9871 15.94013858    14"
                    ]
                }
            ]
        }
    ],
    "config": {}
}